HIMAWARI-8              
1 40267U 14060A   24210.54319272 -.00000278  00000+0  00000+0 0  9998
2 40267   0.0391 235.5343 0000811 309.4633  97.8889  1.00272055 35859
